{"fetched_at":"2026-03-29T16:36:15Z","count":15609,"tles":[{"name":"STARLINK-36230","line1":"1 67075U 25298A   26087.90437325  .00002709  00000+0  23468-3 0  9990","line2":"2 67075  70.0012 326.0859 0002414 274.0178  86.0705 14.98338243 16097","category":"Starlink"}]}