{
  "norad_id": 67075,
  "name": "STARLINK-36230",
  "history": [
    {
      "epoch": "2026-03-28T21:42:17.848800",
      "apogee_km": 573.708170674171,
      "perigee_km": 570.3526298533243,
      "latitude_deg": 32.665070515998934,
      "longitude_deg": -105.68016800004989,
      "semi_major_axis_km": 6950.167400263747,
      "eccentricity": 0.0002414,
      "inclination_deg": 70.0012,
      "raan_deg": 326.0859,
      "arg_perigee_deg": 274.0178,
      "mean_anomaly_deg": 86.0705,
      "mean_motion_rev_day": 14.98338243
    }
  ]
}